NORAD_CAT_ID,OBJECT_NAME,OBJECT_TYPE,EPOCH,MEAN_MOTION,ECCENTRICITY,INCLINATION,RA_OF_ASC_NODE,ARG_OF_PERICENTER,MEAN_ANOMALY,BSTAR,MEAN_MOTION_DOT,MEAN_MOTION_DDOT,TLE_LINE0,TLE_LINE1,TLE_LINE2,SEMIMAJOR_AXIS,PERIOD,APOGEE,PERIGEE,DECAYED
54802.0,STARLINK-5426,PAYLOAD,2024-08-14 14:50:35,15.08838186,0.0001461,53.2134,36.7094,69.8378,290.2771,0.0009694,0.00015173,0.0,0 STARLINK-5426,1 54802U 22175AW  24227.61846524  .00015173  00000-0  96940-3 0  9997,2 54802  53.2134  36.7094 0001461  69.8378 290.2771 15.08838186 94336,6917.886,95.438,540.762,538.74,0.0
54802.0,STARLINK-5426,PAYLOAD,2024-08-14 18:01:21,15.0884952,0.0001299,53.2182,36.114,68.4188,291.6943,0.0013038,0.00020528,0.0,0 STARLINK-5426,1 54802U 22175AW  24227.75094427  .00020528  00000-0  13038-2 0  9995,2 54802  53.2182  36.1140 0001299  68.4188 291.6943 15.08849520 92190,6917.851,95.437,540.615,538.818,0.0
54802.0,STARLINK-5426,PAYLOAD,2024-08-15 17:52:07,15.0886393,0.0001503,53.2178,31.6518,58.9264,301.1875,0.0003287,4.951e-05,0.0,0 STARLINK-5426,1 54802U 22175AW  24228.74452797  .00004951  00000-0  32870-3 0  9991,2 54802  53.2178  31.6518 0001503  58.9264 301.1875 15.08863930 92340,6917.807,95.436,540.712,538.632,0.0
54802.0,STARLINK-5426,PAYLOAD,2024-08-16 03:24:25,15.08854497,0.0001351,53.2175,29.8687,53.0662,307.0453,-2.1453e-06,-3.22e-06,0.0,0 STARLINK-5426,1 54802U 22175AW  24229.14196646 -.00000322  00000-0 -21453-5 0  9991,2 54802  53.2175  29.8687 0001351  53.0662 307.0453 15.08854497 92404,6917.836,95.437,540.636,538.766,0.0
54802.0,STARLINK-5426,PAYLOAD,2024-08-16 11:21:21,15.08850548,0.0001324,53.2185,28.3858,66.3077,293.8054,-0.00013056,-2.366e-05,0.0,0 STARLINK-5426,1 54802U 22175AW  24229.47316729 -.00002366  00000-0 -13056-3 0  9991,2 54802  53.2185  28.3858 0001324  66.3077 293.8054 15.08850548 92453,6917.848,95.437,540.629,538.797,0.0
54802.0,STARLINK-5426,PAYLOAD,2024-08-16 20:53:39,15.08884114,0.000139,53.2179,26.5996,107.7057,252.4087,-0.00043274,-7.177e-05,0.0,0 STARLINK-5426,1 54802U 22175AW  24229.87059216 -.00007177  00000-0 -43274-3 0  9990,2 54802  53.2179  26.5996 0001390 107.7057 252.4087 15.08884114 92510,6917.746,95.435,540.572,538.649,0.0
54802.0,STARLINK-5426,PAYLOAD,2024-08-18 18:59:50,15.08838935,0.0001368,53.2184,17.9707,107.263,252.8512,9.6266e-05,1.244e-05,0.0,0 STARLINK-5426,1 54802U 22175AW  24231.79156026  .00001244  00000-0  96266-4 0  9998,2 54802  53.2184  17.9707 0001368 107.2630 252.8512 15.08838935 92806,6917.884,95.438,540.695,538.802,0.0
54802.0,STARLINK-5426,PAYLOAD,2024-08-19 18:50:39,15.0882824,8.03e-05,53.2203,13.5216,98.3224,261.7859,-0.00018133,-3.171e-05,0.0,0 STARLINK-5426,1 54802U 22175AW  24232.78517974 -.00003171  00000-0 -18133-3 0  9990,2 54802  53.2203  13.5216 0000803  98.3224 261.7859 15.08828240 92954,6917.916,95.438,540.337,539.226,0.0
54802.0,STARLINK-5426,PAYLOAD,2024-08-20 02:47:34,15.08831696,9.68e-05,53.221,12.022,115.8127,244.2965,2.9934e-05,1.89e-06,0.0,0 STARLINK-5426,1 54802U 22175AW  24233.11637090  .00000189  00000-0  29934-4 0  9996,2 54802  53.2210  12.0220 0000968 115.8127 244.2965 15.08831696 93000,6917.906,95.438,540.44,539.101,0.0
54802.0,STARLINK-5426,PAYLOAD,2024-08-20 13:55:15,15.0883985,8.73e-05,53.2194,9.9508,48.2317,311.8749,0.00013578,1.874e-05,0.0,0 STARLINK-5426,1 54802U 22175AW  24233.58004618  .00001874  00000-0  13578-3 0  9999,2 54802  53.2194   9.9508 0000873  48.2317 311.8749 15.08839850 95238,6917.881,95.438,540.35,539.142,0.0
54802.0,STARLINK-5426,PAYLOAD,2024-08-20 15:30:38,15.0884359,0.0001035,53.2184,9.6518,55.226,304.883,0.00017925,2.566e-05,0.0,0 STARLINK-5426,1 54802U 22175AW  24233.64628382  .00002566  00000-0  17925-3 0  9995,2 54802  53.2184   9.6518 0001035  55.2260 304.8830 15.08843590 93081,6917.869,95.437,540.45,539.018,0.0
54802.0,STARLINK-5426,PAYLOAD,2024-08-21 12:10:40,15.08838544,7.13e-05,53.2183,5.7817,94.6537,265.4537,0.00010982,1.461e-05,0.0,0 STARLINK-5426,1 54802U 22175AW  24234.50741326  .00001461  00000-0  10982-3 0  9994,2 54802  53.2183   5.7817 0000713  94.6537 265.4537 15.08838544 93219,6917.885,95.438,540.243,539.257,0.0
54802.0,STARLINK-5426,PAYLOAD,2024-08-21 13:46:03,15.08839883,8.83e-05,53.2188,5.4912,57.9343,302.1735,0.00010809,1.433e-05,0.0,0 STARLINK-5426,1 54802U 22175AW  24234.57365444  .00001433  00000-0  10809-3 0  9991,2 54802  53.2188   5.4912 0000883  57.9343 302.1735 15.08839883 95388,6917.881,95.438,540.357,539.135,0.0
54802.0,STARLINK-5426,PAYLOAD,2024-08-21 18:32:12,15.08840722,6.69e-05,53.2189,4.5917,99.9863,260.1204,0.0001335,1.838e-05,0.0,0 STARLINK-5426,1 54802U 22175AW  24234.77237217  .00001838  00000-0  13350-3 0  9992,2 54802  53.2189   4.5917 0000669  99.9863 260.1204 15.08840722 93251,6917.878,95.438,540.206,539.28,0.0
